{
  "norad_id": 59141,
  "name": "TIGER-7",
  "history": [
    {
      "epoch": "2026-05-03T09:38:35.787840Z",
      "apogee_km": 427.8310155921763,
      "perigee_km": 420.2779981867561,
      "latitude_deg": -5.0848253546923154e-05,
      "longitude_deg": -93.52122033942115,
      "height_km": 423.4808475732172,
      "semi_major_axis_km": 6802.191506889466,
      "eccentricity": 0.00055519,
      "inclination_deg": 97.543,
      "raan_deg": 272.4339,
      "arg_perigee_deg": 348.292,
      "mean_anomaly_deg": 11.8199,
      "mean_motion_rev_day": 15.47495803
    },
    {
      "epoch": "2026-05-04T08:55:17.985216Z",
      "apogee_km": 427.7114331374005,
      "perigee_km": 420.2582122138583,
      "latitude_deg": 4.4152790439903405e-05,
      "longitude_deg": -82.64216780716977,
      "height_km": 423.5240722585035,
      "semi_major_axis_km": 6802.121822675629,
      "eccentricity": 0.00054786,
      "inclination_deg": 97.5438,
      "raan_deg": 273.4448,
      "arg_perigee_deg": 344.184,
      "mean_anomaly_deg": 15.9238,
      "mean_motion_rev_day": 15.47519583
    },
    {
      "epoch": "2026-05-05T15:57:31.807872Z",
      "apogee_km": 427.5186905324126,
      "perigee_km": 420.21333929439515,
      "latitude_deg": -3.9205245845911596e-05,
      "longitude_deg": 171.87379256042593,
      "height_km": 423.5902234543354,
      "semi_major_axis_km": 6802.003014913404,
      "eccentricity": 0.000537,
      "inclination_deg": 97.5441,
      "raan_deg": 274.793,
      "arg_perigee_deg": 338.6172,
      "mean_anomaly_deg": 21.4852,
      "mean_motion_rev_day": 15.47560128
    },
    {
      "epoch": "2026-05-06T09:01:44.226048Z",
      "apogee_km": 427.42097342524994,
      "perigee_km": 420.2041049641639,
      "latitude_deg": -5.1036101217822546e-05,
      "longitude_deg": -84.13749576809252,
      "height_km": 423.64988854516736,
      "semi_major_axis_km": 6801.949539194707,
      "eccentricity": 0.0005305,
      "inclination_deg": 97.5445,
      "raan_deg": 275.5345,
      "arg_perigee_deg": 335.6875,
      "mean_anomaly_deg": 24.4123,
      "mean_motion_rev_day": 15.47578378
    },
    {
      "epoch": "2026-05-07T20:43:13.833984Z",
      "apogee_km": 427.25352384389316,
      "perigee_km": 420.20135079528063,
      "latitude_deg": 3.161139851576661e-06,
      "longitude_deg": 100.57382513756214,
      "height_km": 423.82416486995515,
      "semi_major_axis_km": 6801.864437319587,
      "eccentricity": 0.0005184,
      "inclination_deg": 97.5445,
      "raan_deg": 277.085,
      "arg_perigee_deg": 329.2286,
      "mean_anomaly_deg": 30.8659,
      "mean_motion_rev_day": 15.47607422
    }
  ]
}